ASNARO-2                
1 43152U 18007A   26178.96534659  .00007642  00000+0  33387-3 0  9997
2 43152  97.3964 185.7243 0001719  86.4418 273.7015 15.22381507469057
JILIN-1 07              
1 43159U 18008E   26178.98091843  .00008835  00000+0  26301-3 0  9993
2 43159  97.1764 198.6220 0008865  32.2714 327.9071 15.34897962466652
JILIN-1 08              
1 43160U 18008F   26178.98843760  .00006191  00000+0  19139-3 0  9992
2 43160  97.1799 197.9343 0007357  50.0530 310.1359 15.33831312466603
S-NET D                 
1 43186U 18014G   26178.68780379  .00005250  00000+0  27075-3 0  9993
2 43186  97.5361  83.4132 0007781 355.7340   4.3825 15.16766898460353
S-NET B                 
1 43187U 18014H   26178.96335229  .00005091  00000+0  26284-3 0  9999
2 43187  97.5363  83.6739 0008204 348.9681  11.1371 15.16739727460391
S-NET A                 
1 43188U 18014J   26178.68662395  .00005352  00000+0  27585-3 0  9991
2 43188  97.5374  83.6098 0008162 350.8126   9.2956 15.16775550460358
S-NET C                 
1 43189U 18014K   26178.96728252  .00004893  00000+0  25277-3 0  9993
2 43189  97.5391  83.9651 0009225 340.1881  19.8993 15.16731550458949
PAZ                     
1 43215U 18020A   26178.97526979  .00001781  00000+0  87976-4 0  9991
2 43215  97.4448 186.2075 0001668  87.0186 273.1239 15.19156627462645
GOES 17                 
1 43226U 18022A   26178.93111966 -.00000172  00000+0  00000+0 0  9999
2 43226   0.9636  85.5385 0000724  25.3521  50.8405  1.00272570 30535
LKW-4                   
1 43236U 18025A   26178.96533176  .00043055  00000+0  47220-3 0  9992
2 43236  97.6341 350.6897 0002404 241.6374 118.4642 15.63127853461711
ZHUHAI-1 OVS-02         
1 43440U 18040B   26178.99194975  .00007522  00000+0  30255-3 0  9998
2 43440  97.0381 195.5809 0003058 183.0363 177.0858 15.25164397454363
ZHUHAI-1 OHS-02         
1 43441U 18040C   26178.97094975  .00007606  00000+0  29772-3 0  9991
2 43441  97.0365 202.5115 0009427 179.6003 180.5246 15.26032729115923
GAOFEN-6                
1 43484U 18048A   26178.98177949  .00000192  00000+0  35233-4 0  9993
2 43484  98.0896 241.6432 0011659 130.2274 229.9957 14.76373017434988
LUOJIA-1 01             
1 43485U 18048B   26178.93858617  .00001005  00000+0  11733-3 0  9999
2 43485  97.8109 256.9536 0010429  87.0569 273.1840 14.87320810435817
PAKTES 1A               
1 43529U 18056A   26178.95118016  .00003265  00000+0  27263-3 0  9996
2 43529  98.1277 335.8971 0021105  72.8379 287.5151 14.99142809433534
PRSS-1                  
1 43530U 18056B   26178.92520745  .00000312  00000+0  45694-4 0  9990
2 43530  97.7823 246.4975 0001470  76.6110 283.5267 14.82002294430027
HAIYANG-1C              
1 43609U 18068A   26178.91926779 -.00000090  00000+0 -16528-4 0  9995
2 43609  98.5194 251.0721 0012027  65.8101 294.4340 14.34181224408627
SSTL S1-4               
1 43618U 18071A   26178.92264402  .00001483  00000+0  13649-3 0  9993
2 43618  97.5021  50.0899 0002036 111.3750 248.7690 14.96178969424543
HAIYANG-2B              
1 43655U 18081A   26178.97127640  .00000043  00000+0  85198-4 0  9992
2 43655  99.3283 187.5646 0000130 169.8113 190.3041 13.79308113386415
CFOSAT                  
1 43662U 18083A   26178.98175354  .00003189  00000+0  16736-3 0  9993
2 43662  97.3600 183.1942 0002314  83.3387 276.8110 15.16438314424076
TEN-KOH                 
1 43677U 18084G   26178.77595114  .00001500  00000+0  11637-3 0  9997
2 43677  98.0749  11.5862 0011121  84.0511 276.1980 15.02975426417752
DIWATA-2B               
1 43678U 18084H   26178.97314023  .00002614  00000+0  21235-3 0  9990
2 43678  98.1202  15.6523 0013030 136.3525 223.8731 15.00499397417832
STARS-AO                
1 43679U 18084J   26178.56065953  .00005782  00000+0  29499-3 0  9990
2 43679  98.0494  33.1717 0003471 115.8375 244.3215 15.17161867419044
AUTCUBE 2               
1 43681U 18084K   26178.83214848  .00003395  00000+0  21226-3 0  9990
2 43681  98.0702  25.5713 0009217  17.4161 342.7381 15.10160252418534
METOP-C                 
1 43689U 18087A   26178.83730977  .00000101  00000+0  65870-4 0  9993
2 43689  98.6640 238.2461 0002063 116.1245 244.0145 14.21514787396347
ES'HAIL 2               
1 43700U 18090A   26178.88267295  .00000156  00000+0  00000+0 0  9993
2 43700   0.0168 344.9592 0002146 143.8821 130.6903  1.00271050 27789
MOHAMMED VI-B           
1 43717U 18095A   26178.94775050  .00000309  00000+0  51016-4 0  9994
2 43717  97.9560 251.1250 0001533  97.5119 262.6266 14.77059778409772
HYSIS                   
1 43719U 18096A   26178.97119685  .00000977  00000+0  14043-3 0  9995
2 43719  97.9841 245.6347 0001861  92.1678 267.9746 14.78637728409012
COSMOS 2530 (RODNIK-S *)
1 43751U 18097A   26178.92188556  .00000207  00000+0  14211-2 0  9992
2 43751  82.5134 215.6185 0019747  16.8153 343.3577 12.42881914343625
