OBJECT_NAME,OBJECT_ID,EPOCH,MEAN_MOTION,ECCENTRICITY,INCLINATION,RA_OF_ASC_NODE,ARG_OF_PERICENTER,MEAN_ANOMALY,EPHEMERIS_TYPE,CLASSIFICATION_TYPE,NORAD_CAT_ID,ELEMENT_SET_NO,REV_AT_EPOCH,BSTAR,MEAN_MOTION_DOT,MEAN_MOTION_DDOT
ASNARO-2,2018-007A,2026-06-27T23:10:05.945376,15.22381507,.00017197,97.3964,185.7243,86.4418,273.7015,0,U,43152,999,46905,.33387328E-3,.7642E-4,0
JILIN-1 07,2018-008E,2026-06-27T23:32:31.352352,15.34897962,.00088657,97.1764,198.6220,32.2714,327.9071,0,U,43159,999,46665,.26300679E-3,.8835E-4,0
JILIN-1 08,2018-008F,2026-06-27T23:43:21.008640,15.33831312,.0007357,97.1799,197.9343,50.0530,310.1359,0,U,43160,999,46660,.19139452E-3,.6191E-4,0
S-NET D,2018-014G,2026-06-27T16:30:26.247456,15.16766898,.00077817,97.5361,83.4132,355.7340,4.3825,0,U,43186,999,46035,.27075041E-3,.525E-4,0
S-NET B,2018-014H,2026-06-27T23:07:13.637856,15.16739727,.00082044,97.5363,83.6739,348.9681,11.1371,0,U,43187,999,46039,.26283948E-3,.5091E-4,0
S-NET A,2018-014J,2026-06-27T16:28:44.309280,15.16775550,.00081625,97.5374,83.6098,350.8126,9.2956,0,U,43188,999,46035,.27585204E-3,.5352E-4,0
S-NET C,2018-014K,2026-06-27T23:12:53.209728,15.16731550,.00092259,97.5391,83.9651,340.1881,19.8993,0,U,43189,999,45894,.25277264E-3,.4893E-4,0
PAZ,2018-020A,2026-06-27T23:24:23.309856,15.19156627,.00016681,97.4448,186.2075,87.0186,273.1239,0,U,43215,999,46264,.87975737E-4,.1781E-4,0
GOES 17,2018-022A,2026-06-27T22:20:48.738624,1.00272570,.00007241,0.9636,85.5385,25.3521,50.8405,0,U,43226,999,3053,0,-.172E-5,0
LKW-4,2018-025A,2026-06-27T23:10:04.664064,15.63127853,.00024045,97.6341,350.6897,241.6374,118.4642,0,U,43236,999,46171,.47220217E-3,.43055E-3,0
ZHUHAI-1 OVS-02,2018-040B,2026-06-27T23:48:24.458400,15.25164397,.00030582,97.0381,195.5809,183.0363,177.0858,0,U,43440,999,45436,.30254522E-3,.7522E-4,0
ZHUHAI-1 OHS-02,2018-040C,2026-06-27T23:18:10.058400,15.26032729,.00094275,97.0365,202.5115,179.6003,180.5246,0,U,43441,999,11592,.29772314E-3,.7606E-4,0
GAOFEN-6,2018-048A,2026-06-27T23:33:45.747936,14.76373017,.00116596,98.0896,241.6432,130.2274,229.9957,0,U,43484,999,43498,.35233335E-4,.192E-5,0
LUOJIA-1 01,2018-048B,2026-06-27T22:31:33.845088,14.87320810,.00104294,97.8109,256.9536,87.0569,273.1840,0,U,43485,999,43581,.11733148E-3,.1005E-4,0
PAKTES 1A,2018-056A,2026-06-27T22:49:41.965824,14.99142809,.00211056,98.1277,335.8971,72.8379,287.5151,0,U,43529,999,43353,.27262545E-3,.3265E-4,0
PRSS-1,2018-056B,2026-06-27T22:12:17.923680,14.82002294,.00014705,97.7823,246.4975,76.6110,283.5267,0,U,43530,999,43002,.45693862E-4,.312E-5,0
HAIYANG-1C,2018-068A,2026-06-27T22:03:44.737056,14.34181224,.00120273,98.5194,251.0721,65.8101,294.4340,0,U,43609,999,40862,-.16527541E-4,-.9E-6,0
SSTL S1-4,2018-071A,2026-06-27T22:08:36.443328,14.96178969,.00020367,97.5021,50.0899,111.3750,248.7690,0,U,43618,999,42454,.13649264E-3,.1483E-4,0
HAIYANG-2B,2018-081A,2026-06-27T23:18:38.280960,13.79308113,.00001305,99.3283,187.5646,169.8113,190.3041,0,U,43655,999,38641,.85197593E-4,.43E-6,0
CFOSAT,2018-083A,2026-06-27T23:33:43.505856,15.16438314,.00023142,97.3600,183.1942,83.3387,276.8110,0,U,43662,999,42407,.16736032E-3,.3189E-4,0
TEN-KOH,2018-084G,2026-06-27T18:37:22.178496,15.02975426,.00111213,98.0749,11.5862,84.0511,276.1980,0,U,43677,999,41775,.11636823E-3,.15E-4,0
DIWATA-2B,2018-084H,2026-06-27T23:21:19.315872,15.00499397,.00130302,98.1202,15.6523,136.3525,223.8731,0,U,43678,999,41783,.21235011E-3,.2614E-4,0
STARS-AO,2018-084J,2026-06-27T13:27:20.983392,15.17161867,.00034715,98.0494,33.1717,115.8375,244.3215,0,U,43679,999,41904,.29499002E-3,.5782E-4,0
AUTCUBE 2,2018-084K,2026-06-27T19:58:17.628672,15.10160252,.00092173,98.0702,25.5713,17.4161,342.7381,0,U,43681,999,41853,.21225933E-3,.3395E-4,0
METOP-C,2018-087A,2026-06-27T20:05:43.564128,14.21514787,.00020639,98.6640,238.2461,116.1245,244.0145,0,U,43689,999,39634,.65870435E-4,.101E-5,0
ES'HAIL 2,2018-090A,2026-06-27T21:11:02.942880,1.00271050,.00021467,0.0168,344.9592,143.8821,130.6903,0,U,43700,999,2778,0,.156E-5,0
MOHAMMED VI-B,2018-095A,2026-06-27T22:44:45.643200,14.77059778,.00015336,97.9560,251.1250,97.5119,262.6266,0,U,43717,999,40977,.51016442E-4,.309E-5,0
HYSIS,2018-096A,2026-06-27T23:18:31.407840,14.78637728,.00018617,97.9841,245.6347,92.1678,267.9746,0,U,43719,999,40901,.14042564E-3,.977E-5,0
COSMOS 2530 (RODNIK-S 16),2018-097A,2026-06-27T22:07:30.912384,12.42881914,.00197479,82.5134,215.6185,16.8153,343.3577,0,U,43751,999,34362,.14211115E-2,.207E-5,0
